[{"OBJECT_NAME":"GLOBAL-2","OBJECT_ID":"2018-099BG","EPOCH":"2026-03-09T16:47:21.463008","MEAN_MOTION":15.08046936,"ECCENTRICITY":0.00074537,"INCLINATION":97.3697,"RA_OF_ASC_NODE":109.328,"ARG_OF_PERICENTER":127.1924,"MEAN_ANOMALY":232.9986,"EPHEMERIS_TYPE":0,"CLASSIFICATION_TYPE":"U","NORAD_CAT_ID":43812,"ELEMENT_SET_NO":999,"REV_AT_EPOCH":39691,"BSTAR":0.0002614533,"MEAN_MOTION_DOT":3.97e-5,"MEAN_MOTION_DDOT":0},{"OBJECT_NAME":"STARLINK-5023","OBJECT_ID":"2022-119AK","EPOCH":"2026-03-09T22:25:05.467584","MEAN_MOTION":15.08843792,"ECCENTRICITY":0.00014207,"INCLINATION":53.2185,"RA_OF_ASC_NODE":312.8925,"ARG_OF_PERICENTER":88.2756,"MEAN_ANOMALY":271.8398,"EPHEMERIS_TYPE":0,"CLASSIFICATION_TYPE":"U","NORAD_CAT_ID":53919,"ELEMENT_SET_NO":999,"REV_AT_EPOCH":19186,"BSTAR":1.135116e-5,"MEAN_MOTION_DOT":-1.07e-6,"MEAN_MOTION_DDOT":0}]
